#aV2022  7 27  0  0  0.00000000     288 DD+AD WGS84 FIT  NGA
## 2220 259200.00000000   300.00000000 59787 0.0000000000000
+   32     1  2  3  4  5  6  7  8  9 10 11 12 13 14 15 16 17
+         18 19 20 21 22 23 24 25 26 27 28 29 30 31 32  0  0
+          0  0  0  0  0  0  0  0  0  0  0  0  0  0  0  0  0
+          0  0  0  0  0  0  0  0  0  0  0  0  0  0  0  0  0
+          0  0  0  0  0  0  0  0  0  0  0  0  0  0  0  0  0
++         2  2  2  2  2  2  2  2  2  2  2  2  2  2  2  2  2
++         2  2  2  2  2  2  2  2  2  2  2  2  2  2  2  0  0
++         0  0  0  0  0  0  0  0  0  0  0  0  0  0  0  0  0
++         0  0  0  0  0  0  0  0  0  0  0  0  0  0  0  0  0
++         0  0  0  0  0  0  0  0  0  0  0  0  0  0  0  0  0
%c cc cc ccc ccc cccc cccc cccc cccc ccccc ccccc ccccc ccccc
%c cc cc ccc ccc cccc cccc cccc cccc ccccc ccccc ccccc ccccc
%f  0.0000000  0.000000000  0.00000000000  0.000000000000000
%f  0.0000000  0.000000000  0.00000000000  0.000000000000000
%i    0    0    0    0      0      0      0      0         0
%i    0    0    0    0      0      0      0      0         0
/*      NGA, ST. LOUIS,MO.                                  
/*   EPHEMERIS COMPUTED FROM 2 DAYS OF DATA                 
/*   EPOCHA v8 SMOOTHER                                     
/*   G2139 IERS2010 SATIGS SATAPC                           
*  2022  7 27  8 55  0.00000000
P  1  13271.412389 -22256.037386  -5226.227440    313.463055                    
V  1   5585.872624  -3592.409757  31657.108759     -0.072663                    
P  2 -18972.931160  13520.236338 -12291.068162   -650.572429                    
V  2   7162.102425 -15079.378523 -26137.022576      0.008406                    
P  3  10155.934313 -12956.710490 -20937.278562   -317.721238                    
V  3  25956.129864   4283.703505  10106.447578     -0.093159                    
P  4   4317.531292 -20623.532057 -16105.109336   -140.867536                    
V  4   8956.490765  18542.959601 -21421.271921      0.047513                    
P  5 -22434.725367   6696.243726  12503.639961    -90.649946                    
V  5 -15827.943032  -3689.781826 -25921.350026     -0.013997                    
P  6 -14865.656968  -4107.499953 -21576.204846    401.693197                    
V  6  16564.380502 -21891.526979  -7151.804817      0.151567                    
P  7   -143.486998 -20140.557059  17472.771837    317.628990                    
V  7  14903.590094 -15781.380219 -19002.437536     -0.016919                    
P  8   9456.215510 -13872.434542  20454.352516    -77.926680                    
V  8  11504.504198  23508.919327  10947.652006     -0.016704                    
P  9  -5515.467546 -25034.244642  -6954.742138   -314.787993                    
V  9   6116.774211   6886.545521 -29976.201420      0.040085                    
P 10  20320.653688  11586.281562  13008.959829   -506.594561                    
V 10 -16220.345442   -458.329508  25748.266802     -0.135177                    
P 11 -20445.270040   7607.711903 -15135.204239    -10.364851                    
V 11  11031.877024 -15863.254063 -22907.251784     -0.000186                    
P 12 -13360.168202  11384.304685 -20169.218894   -252.833221                    
V 12 -24299.152390  -6100.216130  12924.399355     -0.059319                    
P 13 -14422.550167   3978.288494  21786.073138    356.383141                    
V 13  -7158.559796 -27089.494305    382.311274      0.073168                    
P 14 -18620.066047 -13138.659318  13733.027333   -111.127740                    
V 14  17552.887190    670.354564  24344.410586      0.008691                    
P 15  -8260.984881  15106.628333  19723.668266    -42.142954                    
V 15 -14344.663092 -21947.920654  10883.206000      0.030359                    
P 16  25507.586375    206.064258   7922.424368   -517.578676                    
V 16   9582.386573   4326.600959 -29484.711185     -0.019685                    
P 17 -13043.799991 -21489.737649  -8049.370454    641.618667                    
V 17  -1365.793178 -10961.073626  29928.335102      0.043546                    
P 18   -630.372821  19889.655663  17519.157971    100.765966                    
V 18 -15169.393134  16401.178340 -19274.739645     -0.117075                    
P 19 -15669.469408 -14334.988258 -16351.024045    189.170369                    
V 19  -4364.367926 -19729.095500  21584.497584      0.050257                    
P 20 -26408.956361   1040.065662    507.081096    499.806814                    
V 20   -734.727671  -3530.051619 -31521.444201     -0.031539                    
P 21  17257.465397 -18954.338074   5940.130040    160.911332                    
V 21  -1041.260666   7548.124886  30990.305420     -0.002147                    
P 22  16237.762560  11761.171562 -17090.399117    299.389153                    
V 22   5150.894876  21919.111691  19333.306518      0.065250                    
P 23  10499.149874  14605.928617  19569.007775    -34.651513                    
V 23 -24786.543182  -1537.991845  14325.404151     -0.015205                    
P 24 -14101.322520  22236.719102   -394.800600    185.865326                    
V 24  -3468.223141  -2075.944927  31408.058222     -0.105440                    
P 25   1540.626974  15649.131259 -21715.767687    353.941277                    
V 25 -26704.675927  -3144.961491  -3950.009172      0.043909                    
P 26  26353.240664   3817.799281  -2451.809239    220.500324                    
V 26  -3232.503809   3037.983594 -30808.121153      0.020666                    
P 27  15694.342739    -33.727779  21269.261773    220.877013                    
V 27  10099.535346  25490.511850  -6958.911435     -0.003010                    
P 28 -23749.252861 -10002.462820   6401.609153    337.654485                    
V 28   7909.966514   -848.686286  30666.994638      0.026335                    
P 29   3462.138476  25402.812020  -6830.774118   -537.344390                    
V 29  -4702.409007  -7520.733052 -30652.525848     -0.034809                    
P 30  -9385.145450 -13205.395479  21108.696041   -534.840058                    
V 30  17215.336603 -20454.508042  -5418.315029     -0.007356                    
P 31  17114.351759   1910.961927 -20471.327178   -187.353794                    
V 31 -15493.811361  20389.274130 -10665.131160     -0.014928                    
P 32  15726.086887  18841.919275 -10243.693598   -187.259425                    
V 32   2855.856082  13081.779780  27852.926981     -0.102447                    
EOF
